ONEWEB-0342             
1 49208U 21083Y   25211.38451865  .00000106  00000+0  22881-3 0  9998
2 49208  87.9283 338.5511 0001962  94.8576 265.2781 13.20772063195608
ONEWEB-0343             
1 49209U 21083Z   25210.88909899  .00000004  00000+0 -21431-4 0  9997
2 49209  87.9126  39.4708 0001585  70.1106 290.0196 13.18687766188854
ONEWEB-0344             
1 49210U 21083AA  25210.88862144 -.00000285  00000+0 -81645-3 0  9994
2 49210  87.8966  24.3069 0001350  87.5617 272.5667 13.13469270188580
ONEWEB-0345             
1 49211U 21083AB  25211.56575931  .00000097  00000+0  22948-3 0  9996
2 49211  87.8965  24.1239 0001295  87.7777 272.3501 13.13468509189988
ONEWEB-0346             
1 49212U 21083AC  25211.58105400  .00000011  00000+0 -60540-5 0  9998
2 49212  87.9127  39.3550 0001873 109.2141 250.9193 13.18686155188882
ONEWEB-0348             
1 49213U 21083AD  25211.07201550  .00000035  00000+0  54093-4 0  9996
2 49213  87.9287 338.6236 0001461 114.3008 245.8278 13.20772846195597
ONEWEB-0350             
1 49214U 21083AE  25210.88946097 -.00000454  00000+0 -12794-2 0  9994
2 49214  87.8966  24.2498 0001459  90.6390 269.4906 13.13469280189923
ONEWEB-0351             
1 49215U 21083AF  25211.59583135  .00003314  00000+0  81123-2 0  9992
2 49215  87.9294 338.5025 0002222  74.6329 285.5050 13.20800758195630
ONEWEB-0352             
1 49216U 21083AG  25210.94618251  .00000147  00000+0  36728-3 0  9992
2 49216  87.8966  24.2803 0001939  78.0229 282.1117 13.13468817188727
ONEWEB-0354             
1 49217U 21083AH  25210.86368234  .00000007  00000+0 -15466-4 0  9990
2 49217  87.9294 338.6466 0001575 100.7573 259.3738 13.20771025194268
ONEWEB-0355             
1 49218U 21083AJ  25211.20362350 -.00000313  00000+0 -89201-3 0  9991
2 49218  87.8970  24.2278 0001661  84.9340 275.1979 13.13471599189935
ONEWEB-0357             
1 49219U 21083AK  25211.39082725  .00000099  00000+0  21214-3 0  9996
2 49219  87.9284 338.5462 0001809  92.8679 267.2661 13.20770945195637
ONEWEB-0332             
1 49279U 21090A   25210.93593151  .00000150  00000+0  37000-3 0  9997
2 49279  87.9068 353.8426 0002030  92.0718 268.0644 13.14503732185243
ONEWEB-0347             
1 49280U 21090B   25210.85105564  .00000054  00000+0  10150-3 0  9997
2 49280  87.9290 338.6634 0002258  98.4488 261.6901 13.20770940188499
ONEWEB-0349             
1 49281U 21090C   25211.41292618  .00000033  00000+0  48338-4 0  9995
2 49281  87.9282 338.5566 0001832  95.3507 264.7835 13.20770608188647
ONEWEB-0353             
1 49282U 21090D   25210.85188292  .00000218  00000+0  55381-3 0  9995
2 49282  87.9068 353.8462 0002068  94.3661 265.7705 13.14503838185238
ONEWEB-0356             
1 49283U 21090E   25211.41134157 -.00000025  00000+0 -93188-4 0  9996
2 49283  87.9286 338.5477 0002359 119.3395 240.7974 13.20771069188641
